43257,IRIDIUM 150,2018,100.4,860.0,+,86.4,Active,1,LEO,USA,USA,Commercial/Government,Communications,Falcon,1 43257U 18030J   24041.20466808  .00000283  00000+0  93825-4 0  9991,2 43257  86.3957 289.0389 0001776  94.2757 265.8642 14.34217694307188,14.34217694,0.0001776,LEO
43258,IRIDIUM 143,2018,100.4,860.0,+,86.4,Active,1,LEO,USA,USA,Commercial/Government,Communications,Falcon,1 43258U 18030K   24041.60425129  .00000128  00000+0  38725-4 0  9993,2 43258  86.3959 288.9302 0002039  97.6205 262.5222 14.34218401307176,14.34218401,0.0002039,LEO
43478,IRIDIUM 161,2018,99.77,860.0,+,86.44,Active,1,LEO,USA,USA,Commercial/Government,Communications,Falcon,1 43478U 18047C   24041.54656147  .00000775  00000+0  22432-3 0  9999,2 43478  86.4446  86.9265 0002215  91.2491 268.8963 14.43277615301435,14.43277615,0.0002215,LEO
43479,IRIDIUM 152,2018,100.4,860.0,+,86.39,Active,1,LEO,USA,USA,Commercial/Government,Communications,Falcon,1 43479U 18047D   24041.57696741  .00000505  00000+0  17319-3 0  9996,2 43479  86.3920  86.7730 0002286  96.1598 263.9858 14.34218005299564,14.34218005,0.0002286,LEO
43480,IRIDIUM 147,2018,100.4,860.0,+,86.39,Active,1,LEO,USA,USA,Commercial/Government,Communications,Falcon,1 43480U 18047E   24041.58331265  .00000174  00000+0  54912-4 0  9999,2 43480  86.3921  86.7604 0002065  88.0142 272.1291 14.34217885299565,14.34217885,0.0002065,LEO
43481,IRIDIUM 110,2018,100.4,860.0,+,86.39,Active,1,LEO,USA,USA,Commercial/Government,Communications,Falcon,1 43481U 18047F   24041.58964907  .00000494  00000+0  16918-3 0  9993,2 43481  86.3925  86.8275 0001867  86.4533 273.6876 14.34221535299551,14.34221535,0.0001867,LEO
43482,IRIDIUM 162,2018,99.77,860.0,+,86.44,Active,1,LEO,USA,USA,Commercial/Government,Communications,Falcon,1 43482U 18047G   24041.54024427  .00000768  00000+0  22225-3 0  9996,2 43482  86.4446  86.8309 0002196  91.9611 268.1842 14.43281261301427,14.43281261,0.0002196,LEO
43569,IRIDIUM 160,2018,100.4,860.0,+,86.39,Active,1,LEO,USA,USA,Commercial/Government,Communications,Falcon,1 43569U 18061A   24041.53549224  .00000088  00000+0  24427-4 0  9996,2 43569  86.3928  55.1934 0002555  84.9447 275.2040 14.34217732290448,14.34217732,0.0002555,LEO
